{
  "norad_id": 55804,
  "name": "ONEWEB-0640",
  "history": [
    {
      "epoch": "2026-03-28T20:52:45.799392Z",
      "apogee_km": 1207.2145863361557,
      "perigee_km": 1204.3492300942526,
      "latitude_deg": 9.038908347088444e-05,
      "longitude_deg": 166.3064505660307,
      "height_km": 1209.1267130447552,
      "semi_major_axis_km": 7583.918908215203,
      "eccentricity": 0.00018891,
      "inclination_deg": 87.8948,
      "raan_deg": 305.7815,
      "arg_perigee_deg": 108.4724,
      "mean_anomaly_deg": 251.6612,
      "mean_motion_rev_day": 13.14504996
    },
    {
      "epoch": "2026-03-29T02:21:35.476128Z",
      "apogee_km": 1207.2201313797423,
      "perigee_km": 1204.3427927152416,
      "latitude_deg": 2.23255767652726e-05,
      "longitude_deg": 83.82878694504159,
      "height_km": 1209.1317635345147,
      "semi_major_axis_km": 7583.918462047492,
      "eccentricity": 0.0001897,
      "inclination_deg": 87.8945,
      "raan_deg": 305.7359,
      "arg_perigee_deg": 108.6236,
      "mean_anomaly_deg": 251.51,
      "mean_motion_rev_day": 13.14505112
    }
  ]
}